[{"OBJECT_NAME":"ONEWEB-0230","OBJECT_ID":"2021-045C","EPOCH":"2025-09-27T12:55:50.736288","MEAN_MOTION":13.15549977,"ECCENTRICITY":0.00018074,"INCLINATION":87.8997,"RA_OF_ASC_NODE":311.631,"ARG_OF_PERICENTER":90.6145,"MEAN_ANOMALY":269.5193,"EPHEMERIS_TYPE":0,"CLASSIFICATION_TYPE":"U","NORAD_CAT_ID":48769,"ELEMENT_SET_NO":999,"REV_AT_EPOCH":21013,"BSTAR":-0.00017942684,"MEAN_MOTION_DOT":-5.5e-7,"MEAN_MOTION_DDOT":0},{"OBJECT_NAME":"ONEWEB-0237","OBJECT_ID":"2021-045D","EPOCH":"2025-09-27T03:32:15.867168","MEAN_MOTION":13.15546932,"ECCENTRICITY":0.00015866,"INCLINATION":87.9006,"RA_OF_ASC_NODE":311.706,"ARG_OF_PERICENTER":98.654,"MEAN_ANOMALY":261.477,"EPHEMERIS_TYPE":0,"CLASSIFICATION_TYPE":"U","NORAD_CAT_ID":48770,"ELEMENT_SET_NO":999,"REV_AT_EPOCH":20980,"BSTAR":-0.00029190969,"MEAN_MOTION_DOT":-9.7e-7,"MEAN_MOTION_DDOT":0},{"OBJECT_NAME":"ONEWEB-0235","OBJECT_ID":"2021-045E","EPOCH":"2025-09-27T12:03:23.261184","MEAN_MOTION":13.15549779,"ECCENTRICITY":0.00014291,"INCLINATION":87.9002,"RA_OF_ASC_NODE":311.6065,"ARG_OF_PERICENTER":108.5731,"MEAN_ANOMALY":251.5555,"EPHEMERIS_TYPE":0,"CLASSIFICATION_TYPE":"U","NORAD_CAT_ID":48771,"ELEMENT_SET_NO":999,"REV_AT_EPOCH":20984,"BSTAR":4.4613355e-5,"MEAN_MOTION_DOT":3.0e-7,"MEAN_MOTION_DDOT":0},{"OBJECT_NAME":"ONEWEB-0242","OBJECT_ID":"2021-045F","EPOCH":"2025-09-27T13:43:44.857344","MEAN_MOTION":13.15550473,"ECCENTRICITY":0.00016237,"INCLINATION":87.9009,"RA_OF_ASC_NODE":311.5805,"ARG_OF_PERICENTER":93.7378,"MEAN_ANOMALY":266.3938,"EPHEMERIS_TYPE":0,"CLASSIFICATION_TYPE":"U","NORAD_CAT_ID":48772,"ELEMENT_SET_NO":999,"REV_AT_EPOCH":20989,"BSTAR":0.00037413036,"MEAN_MOTION_DOT":1.54e-6,"MEAN_MOTION_DDOT":0},{"OBJECT_NAME":"ONEWEB-0241","OBJECT_ID":"2021-045G","EPOCH":"2025-09-27T13:25:30.387072","MEAN_MOTION":13.15550214,"ECCENTRICITY":0.00017096,"INCLINATION":87.8993,"RA_OF_ASC_NODE":311.6287,"ARG_OF_PERICENTER":110.9343,"MEAN_ANOMALY":249.1971,"EPHEMERIS_TYPE":0,"CLASSIFICATION_TYPE":"U","NORAD_CAT_ID":48773,"ELEMENT_SET_NO":999,"REV_AT_EPOCH":20980,"BSTAR":0.0003250443,"MEAN_MOTION_DOT":1.35e-6,"MEAN_MOTION_DDOT":0},{"OBJECT_NAME":"ONEWEB-0243","OBJECT_ID":"2021-045H","EPOCH":"2025-09-27T03:13:59.904768","MEAN_MOTION":13.15549693,"ECCENTRICITY":0.00014285,"INCLINATION":87.9011,"RA_OF_ASC_NODE":311.7174,"ARG_OF_PERICENTER":98.4427,"MEAN_ANOMALY":261.6866,"EPHEMERIS_TYPE":0,"CLASSIFICATION_TYPE":"U","NORAD_CAT_ID":48774,"ELEMENT_SET_NO":999,"REV_AT_EPOCH":20977,"BSTAR":-0.0012977014,"MEAN_MOTION_DOT":-4.76e-6,"MEAN_MOTION_DDOT":0},{"OBJECT_NAME":"ONEWEB-0222","OBJECT_ID":"2021-045J","EPOCH":"2025-09-27T02:50:03.837408","MEAN_MOTION":13.15548275,"ECCENTRICITY":0.00017323,"INCLINATION":87.901,"RA_OF_ASC_NODE":311.6726,"ARG_OF_PERICENTER":100.1312,"MEAN_ANOMALY":260.0014,"EPHEMERIS_TYPE":0,"CLASSIFICATION_TYPE":"U","NORAD_CAT_ID":48775,"ELEMENT_SET_NO":999,"REV_AT_EPOCH":20981,"BSTAR":0.00059388502,"MEAN_MOTION_DOT":2.36e-6,"MEAN_MOTION_DDOT":0},{"OBJECT_NAME":"ONEWEB-0244","OBJECT_ID":"2021-045K","EPOCH":"2025-09-27T03:27:40.422240","MEAN_MOTION":13.15552905,"ECCENTRICITY":0.00018005,"INCLINATION":87.9017,"RA_OF_ASC_NODE":311.6514,"ARG_OF_PERICENTER":97.7473,"MEAN_ANOMALY":262.3862,"EPHEMERIS_TYPE":0,"CLASSIFICATION_TYPE":"U","NORAD_CAT_ID":48776,"ELEMENT_SET_NO":999,"REV_AT_EPOCH":21038,"BSTAR":-0.00249731,"MEAN_MOTION_DOT":-9.27e-6,"MEAN_MOTION_DDOT":0},{"OBJECT_NAME":"ONEWEB-0247","OBJECT_ID":"2021-045L","EPOCH":"2025-09-27T03:23:07.821600","MEAN_MOTION":13.15547428,"ECCENTRICITY":9.245e-5,"INCLINATION":87.9001,"RA_OF_ASC_NODE":311.7182,"ARG_OF_PERICENTER":112.3489,"MEAN_ANOMALY":247.7739,"EPHEMERIS_TYPE":0,"CLASSIFICATION_TYPE":"U","NORAD_CAT_ID":48777,"ELEMENT_SET_NO":999,"REV_AT_EPOCH":20982,"BSTAR":-0.00011704539,"MEAN_MOTION_DOT":-3.1e-7,"MEAN_MOTION_DDOT":0},{"OBJECT_NAME":"ONEWEB-0245","OBJECT_ID":"2021-045M","EPOCH":"2025-09-27T03:16:18.136128","MEAN_MOTION":13.1554796,"ECCENTRICITY":0.00018674,"INCLINATION":87.9002,"RA_OF_ASC_NODE":311.6831,"ARG_OF_PERICENTER":102.473,"MEAN_ANOMALY":257.6609,"EPHEMERIS_TYPE":0,"CLASSIFICATION_TYPE":"U","NORAD_CAT_ID":48778,"ELEMENT_SET_NO":999,"REV_AT_EPOCH":20979,"BSTAR":-0.00012021109,"MEAN_MOTION_DOT":-3.2e-7,"MEAN_MOTION_DDOT":0},{"OBJECT_NAME":"ONEWEB-0229","OBJECT_ID":"2021-045N","EPOCH":"2025-09-27T12:17:03.495264","MEAN_MOTION":13.15546882,"ECCENTRICITY":0.0001678,"INCLINATION":87.9,"RA_OF_ASC_NODE":311.6078,"ARG_OF_PERICENTER":93.6341,"MEAN_ANOMALY":266.4981,"EPHEMERIS_TYPE":0,"CLASSIFICATION_TYPE":"U","NORAD_CAT_ID":48779,"ELEMENT_SET_NO":999,"REV_AT_EPOCH":20987,"BSTAR":-0.0001761094,"MEAN_MOTION_DOT":-5.3e-7,"MEAN_MOTION_DDOT":0},{"OBJECT_NAME":"ONEWEB-0228","OBJECT_ID":"2021-045P","EPOCH":"2025-09-27T13:05:10.228992","MEAN_MOTION":13.15546966,"ECCENTRICITY":0.0001723,"INCLINATION":87.9006,"RA_OF_ASC_NODE":311.5778,"ARG_OF_PERICENTER":97.1234,"MEAN_ANOMALY":263.0092,"EPHEMERIS_TYPE":0,"CLASSIFICATION_TYPE":"U","NORAD_CAT_ID":48780,"ELEMENT_SET_NO":999,"REV_AT_EPOCH":20979,"BSTAR":-2.8646726e-5,"MEAN_MOTION_DOT":2.0e-8,"MEAN_MOTION_DDOT":0},{"OBJECT_NAME":"ONEWEB-0232","OBJECT_ID":"2021-045Q","EPOCH":"2025-09-27T14:18:00.494784","MEAN_MOTION":13.15548317,"ECCENTRICITY":0.00018136,"INCLINATION":87.9003,"RA_OF_ASC_NODE":311.5593,"ARG_OF_PERICENTER":96.0681,"MEAN_ANOMALY":264.0656,"EPHEMERIS_TYPE":0,"CLASSIFICATION_TYPE":"U","NORAD_CAT_ID":48781,"ELEMENT_SET_NO":999,"REV_AT_EPOCH":21012,"BSTAR":-0.00014607052,"MEAN_MOTION_DOT":-4.2e-7,"MEAN_MOTION_DDOT":0},{"OBJECT_NAME":"ONEWEB-0231","OBJECT_ID":"2021-045R","EPOCH":"2025-09-27T04:38:26.445696","MEAN_MOTION":13.15547249,"ECCENTRICITY":0.00015172,"INCLINATION":87.9,"RA_OF_ASC_NODE":311.6909,"ARG_OF_PERICENTER":98.7152,"MEAN_ANOMALY":261.415,"EPHEMERIS_TYPE":0,"CLASSIFICATION_TYPE":"U","NORAD_CAT_ID":48782,"ELEMENT_SET_NO":999,"REV_AT_EPOCH":20976,"BSTAR":0.00021033876,"MEAN_MOTION_DOT":9.2e-7,"MEAN_MOTION_DDOT":0},{"OBJECT_NAME":"ONEWEB-0234","OBJECT_ID":"2021-045S","EPOCH":"2025-09-27T12:51:05.514336","MEAN_MOTION":13.15546935,"ECCENTRICITY":0.00026738,"INCLINATION":87.9006,"RA_OF_ASC_NODE":311.5927,"ARG_OF_PERICENTER":104.2885,"MEAN_ANOMALY":255.8543,"EPHEMERIS_TYPE":0,"CLASSIFICATION_TYPE":"U","NORAD_CAT_ID":48783,"ELEMENT_SET_NO":999,"REV_AT_EPOCH":20994,"BSTAR":-0.00029776458,"MEAN_MOTION_DOT":-9.9e-7,"MEAN_MOTION_DDOT":0},{"OBJECT_NAME":"ONEWEB-0238","OBJECT_ID":"2021-045T","EPOCH":"2025-09-27T12:51:28.760256","MEAN_MOTION":13.15550112,"ECCENTRICITY":0.00022104,"INCLINATION":87.9001,"RA_OF_ASC_NODE":311.588,"ARG_OF_PERICENTER":99.5702,"MEAN_ANOMALY":260.5678,"EPHEMERIS_TYPE":0,"CLASSIFICATION_TYPE":"U","NORAD_CAT_ID":48784,"ELEMENT_SET_NO":999,"REV_AT_EPOCH":20984,"BSTAR":-0.00028677817,"MEAN_MOTION_DOT":-9.5e-7,"MEAN_MOTION_DDOT":0}]
