ONEWEB-0230             
1 48769U 21045C   25270.53878167 -.00000055  00000+0 -17943-3 0  9995
2 48769  87.8997 311.6310 0001807  90.6145 269.5193 13.15549977210133
ONEWEB-0237             
1 48770U 21045D   25270.14740587 -.00000097  00000+0 -29191-3 0  9992
2 48770  87.9006 311.7060 0001586  98.6540 261.4770 13.15546932209803
ONEWEB-0235             
1 48771U 21045E   25270.50235256  .00000030  00000+0  44613-4 0  9997
2 48771  87.9002 311.6065 0001429 108.5731 251.5555 13.15549779209840
ONEWEB-0242             
1 48772U 21045F   25270.57204696  .00000154  00000+0  37413-3 0  9995
2 48772  87.9009 311.5805 0001623  93.7378 266.3938 13.15550473209894
ONEWEB-0241             
1 48773U 21045G   25270.55937948  .00000135  00000+0  32504-3 0  9992
2 48773  87.8993 311.6287 0001709 110.9343 249.1971 13.15550214209800
ONEWEB-0243             
1 48774U 21045H   25270.13472112 -.00000476  00000+0 -12977-2 0  9995
2 48774  87.9011 311.7174 0001428  98.4427 261.6866 13.15549693209777
ONEWEB-0222             
1 48775U 21045J   25270.11809997  .00000236  00000+0  59389-3 0  9990
2 48775  87.9010 311.6726 0001732 100.1312 260.0014 13.15548275209819
ONEWEB-0244             
1 48776U 21045K   25270.14421785 -.00000927  00000+0 -24973-2 0  9998
2 48776  87.9017 311.6514 0001800  97.7473 262.3862 13.15552905210382
ONEWEB-0247             
1 48777U 21045L   25270.14106275 -.00000031  00000+0 -11705-3 0  9999
2 48777  87.9001 311.7182 0000924 112.3489 247.7739 13.15547428209826
ONEWEB-0245             
1 48778U 21045M   25270.13632102 -.00000032  00000+0 -12021-3 0  9995
2 48778  87.9002 311.6831 0001867 102.4730 257.6609 13.15547960209797
ONEWEB-0229             
1 48779U 21045N   25270.51184601 -.00000053  00000+0 -17611-3 0  9997
2 48779  87.9000 311.6078 0001678  93.6341 266.4981 13.15546882209870
ONEWEB-0228             
1 48780U 21045P   25270.54525728  .00000002  00000+0 -28647-4 0  9996
2 48780  87.9006 311.5778 0001723  97.1234 263.0092 13.15546966209795
ONEWEB-0232             
1 48781U 21045Q   25270.59583906 -.00000042  00000+0 -14607-3 0  9999
2 48781  87.9003 311.5593 0001813  96.0681 264.0656 13.15548317210120
ONEWEB-0231             
1 48782U 21045R   25270.19336164  .00000092  00000+0  21034-3 0  9993
2 48782  87.9000 311.6909 0001517  98.7152 261.4150 13.15547249209764
ONEWEB-0234             
1 48783U 21045S   25270.53548049 -.00000099  00000+0 -29776-3 0  9999
2 48783  87.9006 311.5927 0002673 104.2885 255.8543 13.15546935209944
ONEWEB-0238             
1 48784U 21045T   25270.53574954 -.00000095  00000+0 -28678-3 0  9990
2 48784  87.9001 311.5880 0002210  99.5702 260.5678 13.15550112209842
